     2.10           NAVIGATION                              RINEX VERSION / TYPE
fic2rin                                 08/18/2008 01:48:18 PGM / RUN BY / DATE
                                                            END OF HEADER
30 08  8 17 16  0  0.0  .916766002774D-04  .204636307899D-11  .000000000000D+00
     .660000000000D+02 -.106593750000D+03  .505128183474D-08  .495570215609D+00
    -.550411641598D-05  .109837967902D-01  .641308724880D-05  .515370133209D+04
     .576000000000D+05 -.115483999252D-06  .248404814678D+01 -.149011611938D-07
     .949604102480D+00  .252500000000D+03  .139037558659D+01 -.860464413225D-08
    -.498592196938D-09  .100000000000D+01  .149300000000D+04  .000000000000D+00
     .240000000000D+01  .000000000000D+00 -.838190317154D-08  .660000000000D+02
     .504060000000D+05  .400000000000D+01
31 08  8 17 16  0  0.0 -.250842422247D-04  .000000000000D+00  .000000000000D+00
     .440000000000D+02  .450625000000D+02  .485734518507D-08  .289703720150D+01
     .247731804848D-05  .664101575967D-02  .199116766453D-05  .515379832268D+04
     .576000000000D+05  .217929482460D-06  .147342472619D+01  .875443220139D-07
     .968602918634D+00  .343625000000D+03 -.122145045811D+01 -.840999316712D-08
     .187864968187D-09  .100000000000D+01  .149300000000D+04  .000000000000D+00
     .240000000000D+01  .000000000000D+00 -.130385160446D-07  .440000000000D+02
     .504060000000D+05  .400000000000D+01
32 08  8 17 16  0  0.0  .313637778163D-03  .159161572810D-11  .000000000000D+00
     .320000000000D+02 -.365937500000D+02  .416195907659D-08 -.231194438551D+01
    -.175833702087D-05  .139288029168D-01  .951252877712D-05  .515379167175D+04
     .576000000000D+05  .147148966789D-06 -.532328005827D+00  .223517417908D-06
     .968118928279D+00  .192343750000D+03 -.129831050188D+01 -.765353308609D-08
    -.442518432669D-09  .100000000000D+01  .149300000000D+04  .000000000000D+00
     .240000000000D+01  .000000000000D+00 -.279396772385D-08  .320000000000D+02
     .504060000000D+05  .400000000000D+01
20 08  8 17 15 59 44.0  .107201747596D-03 -.102318153949D-11  .000000000000D+00
     .100000000000D+02 -.488750000000D+02  .485305929226D-08  .997280099439D+00
    -.265799462795D-05  .353345298208D-02  .848062336445D-05  .515378613472D+04
     .575840000000D+05 -.391155481339D-07 -.635873544971D+00  .167638063431D-07
     .946096807587D+00  .205468750000D+03  .137676866076D+01 -.827963059413D-08
    -.506449667090D-09  .100000000000D+01  .149300000000D+04  .000000000000D+00
     .240000000000D+01  .000000000000D+00 -.651925802231D-08  .100000000000D+02
     .508560000000D+05  .400000000000D+01
20 08  8 17 17 59 44.0  .107194297016D-03 -.102318153949D-11  .000000000000D+00
     .110000000000D+02 -.527812500000D+02  .473591155544D-08  .204704094985D+01
    -.276789069176D-05  .353349733632D-02  .814162194729D-05  .515378848648D+04
     .647840000000D+05  .353902578354D-07 -.635932973092D+00 -.391155481339D-07
     .946093640369D+00  .213500000000D+03  .137712131618D+01 -.818605526777D-08
    -.489663253583D-09  .100000000000D+01  .149300000000D+04  .000000000000D+00
     .240000000000D+01  .000000000000D+00 -.651925802231D-08  .110000000000D+02
     .576060000000D+05  .400000000000D+01
 2 08  8 17 18  0  0.0  .194194726646D-03 -.272848410532D-11  .000000000000D+00
     .630000000000D+02  .290937500000D+02  .540808241120D-08 -.301680101913D+00
     .146962702274D-05  .875271321274D-02  .440329313278D-05  .515375384331D+04
     .648000000000D+05  .113621354103D-06 -.167474655443D+01 -.247731804848D-06
     .942457402414D+00  .290218750000D+03  .262642430086D+01 -.866750389347D-08
     .164649715464D-09  .100000000000D+01  .149300000000D+04  .000000000000D+00
     .240000000000D+01  .000000000000D+00 -.172294676304D-07  .630000000000D+02
     .576060000000D+05  .400000000000D+01
 3 08  8 17 18  0  0.0  .270992983133D-03  .534328137292D-11  .000000000000D+00
     .530000000000D+02 -.531250000000D+01  .515485757765D-08 -.645480007199D+00
    -.316649675369D-06  .109872922767D-01  .114161521196D-04  .515370163345D+04
     .648000000000D+05  .223517417908D-07 -.281945321809D+01  .197440385818D-06
     .926403111197D+00  .140750000000D+03  .835443166007D+00 -.841177895579D-08
     .950039572962D-10  .100000000000D+01  .149300000000D+04  .000000000000D+00
     .340000000000D+01  .000000000000D+00 -.419095158577D-08  .530000000000D+02
     .576060000000D+05  .400000000000D+01
 4 08  8 17 18  0  0.0 -.145237427205D-03 -.104591890704D-10  .000000000000D+00
     .730000000000D+02  .289062500000D+02  .539308178636D-08  .246742559820D+01
     .134110450745D-05  .821076740976D-02  .425614416599D-05  .515356140327D+04
     .648000000000D+05 -.912696123123D-07 -.165598514062D+01 -.614672899246D-07
     .941737731568D+00  .291343750000D+03  .388734401080D+00 -.854392731744D-08
     .134648465792D-09  .100000000000D+01  .149300000000D+04  .000000000000D+00
     .240000000000D+01  .000000000000D+00 -.605359673500D-08  .730000000000D+02
     .576060000000D+05  .400000000000D+01
 5 08  8 17 18  0  0.0  .525842420757D-03 -.265231392405D-09  .277555756156D-16
     .110000000000D+02 -.119500000000D+03  .506949687918D-08  .208616237242D+01
    -.638514757156D-05  .920176913496D-02  .568106770515D-05  .515371240425D+04
     .648000000000D+05  .372529029846D-07  .243186375961D+01 -.171363353729D-06
     .943508953781D+00  .259843750000D+03  .126012776216D+01 -.840427864337D-08
    -.442875590403D-09  .100000000000D+01  .149300000000D+04  .000000000000D+00
     .240000000000D+01  .630000000000D+02 -.419095158577D-08  .110000000000D+02
     .576060000000D+05  .400000000000D+01
 6 08  8 17 18  0  0.0  .167260877788D-03  .909494701773D-12  .000000000000D+00
     .330000000000D+02 -.546875000000D+01  .492449083910D-08  .196825883800D+01
    -.484287738800D-06  .581995199900D-02  .115409493446D-04  .515372778130D+04
     .648000000000D+05  .558793544769D-07 -.275419467791D+01 -.117346644402D-06
     .933914033977D+00  .137656250000D+03 -.160114947922D+01 -.808747973314D-08
     .147148986489D-09  .100000000000D+01  .149300000000D+04  .000000000000D+00
     .240000000000D+01  .000000000000D+00 -.465661287308D-08  .330000000000D+02
     .576060000000D+05  .400000000000D+01
 7 08  8 17 18  0  0.0  .941660255194D-05  .386535248253D-11  .000000000000D+00
     .920000000000D+02  .425937500000D+02  .496520682079D-08 -.192373219498D+01
     .225752592087D-05  .209331745282D-02  .227987766266D-05  .515369520950D+04
     .648000000000D+05  .000000000000D+00  .147683402752D+01 -.204890966415D-07
     .963135730446D+00  .342437500000D+03  .267374957199D+01 -.849678249652D-08
     .292155026572D-09  .100000000000D+01  .149300000000D+04  .000000000000D+00
     .240000000000D+01  .000000000000D+00 -.107102096081D-07  .920000000000D+02
     .576060000000D+05  .400000000000D+01
 8 08  8 17 18  0  0.0 -.166215002537D-03 -.147792889038D-11  .000000000000D+00
     .710000000000D+02  .370000000000D+02  .446447167745D-08 -.273071576584D+01
     .215321779251D-05  .104667587439D-01  .214017927647D-05  .515372149849D+04
     .648000000000D+05 -.128522515297D-06  .153134912846D+01 -.186264514923D-08
     .984300139343D+00  .356500000000D+03  .289330810482D+01 -.815462538717D-08
     .285011871888D-09  .100000000000D+01  .149300000000D+04  .000000000000D+00
     .340000000000D+01  .000000000000D+00 -.372529029846D-08  .710000000000D+02
     .576060000000D+05  .400000000000D+01
 9 08  8 17 18  0  0.0  .104806385934D-04  .181898940355D-11  .000000000000D+00
     .720000000000D+02  .605000000000D+02  .471912514193D-08 -.310834577460D+01
     .292807817459D-05  .201774358284D-01  .187195837498D-05  .515365985298D+04
     .648000000000D+05  .342726707458D-06  .144073311092D+01 -.145286321640D-06
     .972153510050D+00  .347093750000D+03  .143346096856D+01 -.816105422638D-08
     .351086052715D-09  .100000000000D+01  .149300000000D+04  .000000000000D+00
     .340000000000D+01  .000000000000D+00 -.558793544769D-08  .720000000000D+02
     .576060000000D+05  .400000000000D+01
10 08  8 17 18  0  0.0 -.393064692616D-05 -.341060513165D-12  .000000000000D+00
     .300000000000D+02 -.498437500000D+02  .440018328530D-08  .595081209555D+00
    -.246614217758D-05  .798026763368D-02  .907853245735D-05  .515368703461D+04
     .648000000000D+05 -.242143869400D-07 -.592003033885D+00  .173225998878D-06
     .962521199523D+00  .205062500000D+03  .557374128870D+00 -.806712174229D-08
    -.613239829615D-09  .100000000000D+01  .149300000000D+04  .000000000000D+00
     .240000000000D+01  .000000000000D+00 -.232830643654D-08  .300000000000D+02
     .576060000000D+05  .400000000000D+01
11 08  8 17 18  0  0.0  .215033069253D-04 -.568434188608D-12  .000000000000D+00
     .680000000000D+02  .532812500000D+02  .640419533187D-08 -.230148685314D+01
     .279955565929D-05  .831335422117D-02  .444054603577D-05  .515363838196D+04
     .648000000000D+05  .167638063431D-07 -.186070235930D+01 -.502914190292D-07
     .890403152042D+00  .256718750000D+03  .603745186810D+00 -.897073080980D-08
     .394659296287D-09  .100000000000D+01  .149300000000D+04  .000000000000D+00
     .240000000000D+01  .000000000000D+00 -.116415321827D-07  .680000000000D+02
     .576060000000D+05  .400000000000D+01
12 08  8 17 18  0  0.0 -.354223884642D-03  .113686837722D-11  .000000000000D+00
     .360000000000D+02 -.119968750000D+03  .458304804520D-08 -.186699318792D+01
    -.622496008873D-05  .321304216050D-02  .740215182304D-05  .515355108833D+04
     .648000000000D+05 -.968575477600D-07  .252712039321D+01  .372529029846D-07
     .964769831885D+00  .237468750000D+03 -.876344905751D+00 -.820141305034D-08
    -.478234206089D-09  .100000000000D+01  .149300000000D+04  .000000000000D+00
     .240000000000D+01  .000000000000D+00 -.116415321827D-07  .360000000000D+02
     .576060000000D+05  .400000000000D+01
